ION SCV-004             
1 50993U 22002K   26068.68892644  .00006538  00000+0  23198-3 0  9998
2 50993  97.2961 128.2294 0007216   1.6783 358.4480 15.29369331230088
STARLINK-35789          
1 67113U 25299M   26068.30204181  .00026284  00000+0  93654-3 0  9997
2 67113  43.0010 171.4723 0001783 273.4705  86.5943 15.28434906 13056
